[{"OBJECT_NAME":"HJ-2F","OBJECT_ID":"2023-116A","EPOCH":"2026-03-09T22:49:19.583040","MEAN_MOTION":15.20784398,"ECCENTRICITY":0.00100751,"INCLINATION":97.3886,"RA_OF_ASC_NODE":75.9939,"ARG_OF_PERICENTER":41.1134,"MEAN_ANOMALY":319.0859,"EPHEMERIS_TYPE":0,"CLASSIFICATION_TYPE":"U","NORAD_CAT_ID":57519,"ELEMENT_SET_NO":999,"REV_AT_EPOCH":14366,"BSTAR":0.00048860697,"MEAN_MOTION_DOT":0.00010719,"MEAN_MOTION_DDOT":0},{"OBJECT_NAME":"IRIDE FM2","OBJECT_ID":"2025-276AG","EPOCH":"2026-03-09T22:42:46.282464","MEAN_MOTION":15.18971526,"ECCENTRICITY":0.00034688,"INCLINATION":97.4252,"RA_OF_ASC_NODE":144.1705,"ARG_OF_PERICENTER":20.3269,"MEAN_ANOMALY":339.8103,"EPHEMERIS_TYPE":0,"CLASSIFICATION_TYPE":"U","NORAD_CAT_ID":66696,"ELEMENT_SET_NO":999,"REV_AT_EPOCH":1535,"BSTAR":0.00057867113,"MEAN_MOTION_DOT":0.00012043,"MEAN_MOTION_DDOT":0}]
